sat42798
1 42798U 17037A   20046.90087804  .00011440  00000-0  14004-3 0  9998
2 42798  97.8131 151.5602 0200706  51.9459 309.9707 15.40019255145792
